CCSDS_OMM_VERS = 2.0
CREATION_DATE  = 
ORIGINATOR     = 

OBJECT_NAME    = ISS OBJECT XX
OBJECT_ID      = 1998-067XX
CENTER_NAME    = EARTH
REF_FRAME      = TEME
TIME_SYSTEM    = UTC
MEAN_ELEMENT_THEORY = SGP/SGP4

EPOCH          = 2026-03-11T03:57:51.222816
MEAN_MOTION    = 15.76233813
ECCENTRICITY   = .00070692
INCLINATION    = 51.6235
RA_OF_ASC_NODE = 56.4689
ARG_OF_PERICENTER = 92.6185
MEAN_ANOMALY   = 267.5624

EPHEMERIS_TYPE = 0
CLASSIFICATION_TYPE = U
NORAD_CAT_ID   = 66911
ELEMENT_SET_NO = 999
REV_AT_EPOCH   = 1542
BSTAR          = .18152438E-2
MEAN_MOTION_DOT = .301388E-2
MEAN_MOTION_DDOT = 0

CCSDS_OMM_VERS = 2.0
CREATION_DATE  = 
ORIGINATOR     = 

OBJECT_NAME    = ISS OBJECT XY
OBJECT_ID      = 1998-067XY
CENTER_NAME    = EARTH
REF_FRAME      = TEME
TIME_SYSTEM    = UTC
MEAN_ELEMENT_THEORY = SGP/SGP4

EPOCH          = 2026-03-10T23:42:00.286848
MEAN_MOTION    = 15.63960594
ECCENTRICITY   = .0003215
INCLINATION    = 51.6270
RA_OF_ASC_NODE = 60.5710
ARG_OF_PERICENTER = 94.9911
MEAN_ANOMALY   = 265.1451

EPHEMERIS_TYPE = 0
CLASSIFICATION_TYPE = U
NORAD_CAT_ID   = 66912
ELEMENT_SET_NO = 999
REV_AT_EPOCH   = 1535
BSTAR          = .11051E-2
MEAN_MOTION_DOT = .107127E-2
MEAN_MOTION_DDOT = 0

CCSDS_OMM_VERS = 2.0
CREATION_DATE  = 
ORIGINATOR     = 

OBJECT_NAME    = KNACKSAT-2
OBJECT_ID      = 1998-067XZ
CENTER_NAME    = EARTH
REF_FRAME      = TEME
TIME_SYSTEM    = UTC
MEAN_ELEMENT_THEORY = SGP/SGP4

EPOCH          = 2026-03-11T06:33:15.026112
MEAN_MOTION    = 15.51967265
ECCENTRICITY   = .00094729
INCLINATION    = 51.6311
RA_OF_ASC_NODE = 63.9810
ARG_OF_PERICENTER = 191.4350
MEAN_ANOMALY   = 168.6426

EPHEMERIS_TYPE = 0
CLASSIFICATION_TYPE = U
NORAD_CAT_ID   = 67683
ELEMENT_SET_NO = 999
REV_AT_EPOCH   = 503
BSTAR          = .70522783E-3
MEAN_MOTION_DOT = .43008E-3
MEAN_MOTION_DDOT = 0

CCSDS_OMM_VERS = 2.0
CREATION_DATE  = 
ORIGINATOR     = 

OBJECT_NAME    = GXIBA-1
OBJECT_ID      = 1998-067YA
CENTER_NAME    = EARTH
REF_FRAME      = TEME
TIME_SYSTEM    = UTC
MEAN_ELEMENT_THEORY = SGP/SGP4

EPOCH          = 2026-03-11T04:17:40.805664
MEAN_MOTION    = 15.54589143
ECCENTRICITY   = .00111005
INCLINATION    = 51.6309
RA_OF_ASC_NODE = 64.1034
ARG_OF_PERICENTER = 180.7546
MEAN_ANOMALY   = 179.3430

EPHEMERIS_TYPE = 0
CLASSIFICATION_TYPE = U
NORAD_CAT_ID   = 67684
ELEMENT_SET_NO = 999
REV_AT_EPOCH   = 502
BSTAR          = .12587252E-2
MEAN_MOTION_DOT = .85374E-3
MEAN_MOTION_DDOT = 0

CCSDS_OMM_VERS = 2.0
CREATION_DATE  = 
ORIGINATOR     = 

OBJECT_NAME    = CORAL
OBJECT_ID      = 1998-067YB
CENTER_NAME    = EARTH
REF_FRAME      = TEME
TIME_SYSTEM    = UTC
MEAN_ELEMENT_THEORY = SGP/SGP4

EPOCH          = 2026-03-11T04:53:37.292640
MEAN_MOTION    = 15.52342723
ECCENTRICITY   = .00115013
INCLINATION    = 51.6308
RA_OF_ASC_NODE = 64.2697
ARG_OF_PERICENTER = 187.8017
MEAN_ANOMALY   = 172.2796

EPHEMERIS_TYPE = 0
CLASSIFICATION_TYPE = U
NORAD_CAT_ID   = 67685
ELEMENT_SET_NO = 999
REV_AT_EPOCH   = 502
BSTAR          = .78081866E-3
MEAN_MOTION_DOT = .48395E-3
MEAN_MOTION_DDOT = 0

CCSDS_OMM_VERS = 2.0
CREATION_DATE  = 
ORIGINATOR     = 

OBJECT_NAME    = ISS OBJECT YC
OBJECT_ID      = 1998-067YC
CENTER_NAME    = EARTH
REF_FRAME      = TEME
TIME_SYSTEM    = UTC
MEAN_ELEMENT_THEORY = SGP/SGP4

EPOCH          = 2026-03-11T06:17:33.846720
MEAN_MOTION    = 15.52919663
ECCENTRICITY   = .00080599
INCLINATION    = 51.6312
RA_OF_ASC_NODE = 63.9104
ARG_OF_PERICENTER = 156.2527
MEAN_ANOMALY   = 203.8836

EPHEMERIS_TYPE = 0
CLASSIFICATION_TYPE = U
NORAD_CAT_ID   = 67686
ELEMENT_SET_NO = 999
REV_AT_EPOCH   = 503
BSTAR          = .9331757E-3
MEAN_MOTION_DOT = .59157E-3
MEAN_MOTION_DDOT = 0

CCSDS_OMM_VERS = 2.0
CREATION_DATE  = 
ORIGINATOR     = 

OBJECT_NAME    = LEOPARD
OBJECT_ID      = 1998-067YD
CENTER_NAME    = EARTH
REF_FRAME      = TEME
TIME_SYSTEM    = UTC
MEAN_ELEMENT_THEORY = SGP/SGP4

EPOCH          = 2026-03-11T04:56:54.386592
MEAN_MOTION    = 15.52145288
ECCENTRICITY   = .00079447
INCLINATION    = 51.6320
RA_OF_ASC_NODE = 64.2868
ARG_OF_PERICENTER = 159.2557
MEAN_ANOMALY   = 200.8756

EPHEMERIS_TYPE = 0
CLASSIFICATION_TYPE = U
NORAD_CAT_ID   = 67687
ELEMENT_SET_NO = 999
REV_AT_EPOCH   = 494
BSTAR          = .74305303E-3
MEAN_MOTION_DOT = .45624E-3
MEAN_MOTION_DDOT = 0

CCSDS_OMM_VERS = 2.0
CREATION_DATE  = 
ORIGINATOR     = 

OBJECT_NAME    = ISS OBJECT YE
OBJECT_ID      = 1998-067YE
CENTER_NAME    = EARTH
REF_FRAME      = TEME
TIME_SYSTEM    = UTC
MEAN_ELEMENT_THEORY = SGP/SGP4

EPOCH          = 2026-03-11T06:21:32.046336
MEAN_MOTION    = 15.52655260
ECCENTRICITY   = .00079879
INCLINATION    = 51.6312
RA_OF_ASC_NODE = 63.9293
ARG_OF_PERICENTER = 156.8543
MEAN_ANOMALY   = 203.2808

EPHEMERIS_TYPE = 0
CLASSIFICATION_TYPE = U
NORAD_CAT_ID   = 67688
ELEMENT_SET_NO = 999
REV_AT_EPOCH   = 495
BSTAR          = .89905258E-3
MEAN_MOTION_DOT = .56411E-3
MEAN_MOTION_DDOT = 0

CCSDS_OMM_VERS = 2.0
CREATION_DATE  = 
ORIGINATOR     = 

OBJECT_NAME    = CREW DRAGON 12
OBJECT_ID      = 2026-031A
CENTER_NAME    = EARTH
REF_FRAME      = TEME
TIME_SYSTEM    = UTC
MEAN_ELEMENT_THEORY = SGP/SGP4

EPOCH          = 2026-03-11T04:35:18.514464
MEAN_MOTION    = 15.48575655
ECCENTRICITY   = .00079324
INCLINATION    = 51.6325
RA_OF_ASC_NODE = 64.9326
ARG_OF_PERICENTER = 179.9008
MEAN_ANOMALY   = 180.1983

EPHEMERIS_TYPE = 0
CLASSIFICATION_TYPE = U
NORAD_CAT_ID   = 67796
ELEMENT_SET_NO = 999
REV_AT_EPOCH   = 55645
BSTAR          = .17769709E-3
MEAN_MOTION_DOT = .9215E-4
MEAN_MOTION_DDOT = 0

